STARLINK-5387           
1 54842U 22177Y   24244.41776337 -.00000423  00000+0 -16217-4 0  9997
2 54842  43.0008 270.0407 0001044 269.1659  90.9064 15.02533960 93438
STARLINK-5304           
1 54843U 22177Z   24244.42996393  .00001151  00000+0  10026-3 0  9993
2 54843  42.9998 270.1343 0000965 271.9982  88.0749 15.02544917 93438
STARLINK-5388           
1 54844U 22177AA  24244.41332095  .00000931  00000+0  83936-4 0  9992
2 54844  43.0008 269.9829 0001095 259.9710 100.1009 15.02541354 93435
STARLINK-5082           
1 54845U 22177AB  24244.42108813  .00000989  00000+0  88240-4 0  9999
2 54845  43.0017 270.0658 0001174 280.2055  79.8655 15.02542754 93430
STARLINK-5360           
1 54846U 22177AC  24244.41443162 -.00000093  00000+0  81643-5 0  9996
2 54846  43.0012 270.0157 0001022 257.9883 102.0845 15.02539778 93434
STARLINK-5061           
1 54847U 22177AD  24244.30863150  .00000699  00000+0  66838-4 0  9997
2 54847  43.0010 244.9285 0001254 270.1667  89.9031 15.02539215 93716
STARLINK-5432           
1 54848U 22177AE  24244.34832733  .00002866  00000+0  22711-3 0  9994
2 54848  43.0000 258.2316 0001537 269.3188  90.7478 15.02546172 93569
STARLINK-5434           
1 54849U 22177AF  24244.41110430 -.00000008  00000+0  14493-4 0  9992
2 54849  43.0015 269.9865 0001054 269.8398  90.2324 15.02535033 93431
STARLINK-5087           
1 54850U 22177AG  24244.34388993  .00000775  00000+0  72457-4 0  9991
2 54850  42.9999 258.1961 0001585 283.1322  76.9344 15.02536331 93563
STARLINK-5084           
1 54851U 22177AH  24244.34721674  .00001086  00000+0  95430-4 0  9991
2 54851  43.0043 258.2205 0000864 272.7363  87.3381 15.02543519 93569
STARLINK-5418           
1 54852U 22177AJ  24244.33723026  .00004372  00000+0  33845-3 0  9996
2 54852  42.9993 258.1458 0001454 265.7032  94.3644 15.02544748 93567
STARLINK-5427           
1 54853U 22177AK  24244.34055474  .00001397  00000+0  11841-3 0  9999
2 54853  43.0020 258.1719 0001224 267.6498  92.4204 15.02545567 93564
STARLINK-5419           
1 54854U 22177AL  24243.73337442 -.00001302  00000+0 -81330-4 0  9999
2 54854  43.0000 261.3517 0001479 261.5583  98.5092 15.02532946 93474
STARLINK-5416           
1 54855U 22177AM  24244.33389612  .00001129  00000+0  98650-4 0  9991
2 54855  43.0006 258.1194 0001251 273.1795  86.8904 15.02542811 93562
STARLINK-5086           
1 54856U 22177AN  24244.38039558  .00000414  00000+0  45689-4 0  9998
2 54856  43.0003 257.6097 0001685 273.2436  86.8213 15.02543393 93570
STARLINK-5078           
1 54857U 22177AP  24244.39149308  .00001017  00000+0  90325-4 0  9992
2 54857  43.0000 257.6980 0001010 272.6155  87.4572 15.02543226 93572
STARLINK-5407           
1 54858U 22177AQ  24243.33007703 -.00001839  00000+0 -12110-3 0  9997
2 54858  43.0002 263.4887 0001282 269.6188  90.4507 15.02536525 93418
STARLINK-5409           
1 54859U 22177AR  24244.38372766  .00002812  00000+0  22312-3 0  9993
2 54859  43.0007 257.6313 0000904 261.5200  98.5540 15.02545267 93575
STARLINK-5406           
1 54860U 22177AS  24244.37817558  .00001054  00000+0  93062-4 0  9995
2 54860  43.0008 257.5916 0001257 266.5906  93.4792 15.02543205 93579
STARLINK-5400           
1 54861U 22177AT  24243.33118387  .00000249  00000+0  33478-4 0  9995
2 54861  43.0015 263.4976 0001032 277.5940  82.4785 15.02536748 93418
STARLINK-5403           
1 54862U 22177AU  24244.35165552  .00001540  00000+0  12903-3 0  9999
2 54862  43.0041 258.2662 0001050 267.1067  92.9656 15.02542002 93566
STARLINK-5405           
1 54863U 22177AV  24244.38705880  .00000282  00000+0  35947-4 0  9993
2 54863  43.0011 257.6577 0001150 273.9543  86.1168 15.02537381 93575
STARLINK-5359           
1 54864U 22177AW  24244.37484376  .00000734  00000+0  69419-4 0  9990
2 54864  43.0021 257.5656 0001249 280.8359  79.2343 15.02542269 93574
STARLINK-5411           
1 54865U 22177AX  24244.39038590  .00001098  00000+0  96306-4 0  9995
2 54865  43.0016 257.6822 0001104 260.2068  99.8649 15.02543441 93574
STARLINK-5398           
1 54866U 22177AY  24244.43133421  .00002901  00000+0  22971-3 0  9990
2 54866  43.0015 257.1322 0001409 262.0488  98.0195 15.02541652 93588
STARLINK-5396           
1 54867U 22177AZ  24244.37706689  .00001592  00000+0  13291-3 0  9996
2 54867  43.0030 257.5828 0001335 272.2439  87.8251 15.02541521 93571
STARLINK-5379           
1 54868U 22177BA  24244.36041829  .00000997  00000+0  88860-4 0  9997
2 54868  43.0000 257.4575 0001219 262.5340  97.5364 15.02542446 93571
STARLINK-5402           
1 54869U 22177BB  24244.30393082  .00001743  00000+0  14405-3 0  9996
2 54869  43.0005 257.8965 0001607 261.7628  98.3032 15.02538216 93565
STARLINK-5401           
1 54870U 22177BC  24244.36263933  .00002400  00000+0  19265-3 0  9995
2 54870  43.0018 257.4749 0001261 273.4766  86.5932 15.02537541 93575
STARLINK-5397           
1 54871U 22177BD  24244.37151561  .00001784  00000+0  14709-3 0  9992
2 54871  43.0009 257.5434 0001274 275.4526  84.6171 15.02547440 93571
STARLINK-5390           
1 54872U 22177BE  24244.35487196  .00002077  00000+0  16874-3 0  9998
2 54872  42.9990 257.4420 0001243 272.4650  87.6050 15.02539873 93574
STARLINK-5091           
1 54873U 22177BF  24243.75879762  .00000270  00000+0  35069-4 0  9997
2 54873  42.9967 260.6835 0001381 271.2919  88.7765 15.02532130 93487
STARLINK-5277           
1 55269U 23010A   24244.44543772  .00002178  00000+0  19023-3 0  9990
2 55269  70.0021   4.5079 0002968 270.3933  89.6886 14.98336685 89898
STARLINK-5301           
1 55270U 23010B   24244.59148040  .00001592  00000+0  14119-3 0  9997
2 55270  69.9999   4.2112 0002762 248.8777 111.2087 14.98334508 89633
STARLINK-5306           
1 55271U 23010C   24244.38285877  .00008759  00000+0  74149-3 0  9996
2 55271  70.0039   4.6923 0002954 255.1879 104.8953 14.98301909 89609
STARLINK-5310           
1 55272U 23010D   24244.59579073  .00003447  00000+0  29648-3 0  9997
2 55272  70.0018   3.8374 0002972 271.5079  88.5739 14.98340105 89647
STARLINK-5291           
1 55273U 23010E   24244.60814845  .00002047  00000+0  17922-3 0  9996
2 55273  70.0000   3.8765 0003186 268.7506  91.3288 14.98338516 89648
STARLINK-5236           
1 55274U 23010F   24244.57038168  .00001156  00000+0  10463-3 0  9992
2 55274  70.0005 344.2737 0002999 272.2667  87.8148 14.98335907 90125
STARLINK-5260           
1 55275U 23010G   24244.56219577  .00005669  00000+0  48247-3 0  9991
2 55275  70.0010 344.2467 0005020 292.8847  67.1782 14.98332186 90129
STARLINK-5261           
1 55276U 23010H   24244.56203598  .00003814  00000+0  32721-3 0  9998
2 55276  70.0008 344.2448 0004565 285.5595  74.5060 14.98330451 90111
STARLINK-5299           
1 55277U 23010J   24244.43709478  .00002096  00000+0  18342-3 0  9997
2 55277  70.0016   4.4764 0002824 265.0680  95.0156 14.98331324 89618
STARLINK-5289           
1 55278U 23010K   24244.62066620  .00003671  00000+0  31515-3 0  9991
2 55278  70.0013   3.9159 0003279 268.3206  91.7578 14.98344382 89634
STARLINK-5323           
1 55279U 23010L   24244.63320504  .00000862  00000+0  80044-4 0  9998
2 55279  70.0007   3.9588 0003279 266.3242  93.7542 14.98326993 89644
STARLINK-5331           
1 55280U 23010M   24244.41221650  .00007557  00000+0  64032-3 0  9994
2 55280  70.0016   4.3870 0003000 264.4634  95.6183 14.98336150 89605
STARLINK-5298           
1 55281U 23010N   24244.62901722  .00002759  00000+0  23884-3 0  9992
2 55281  70.0014   3.9428 0003342 273.5369  86.5407 14.98341268 89630
STARLINK-5330           
1 55282U 23010P   24244.60413949  .00003028  00000+0  26141-3 0  9999
2 55282  70.0004   3.8532 0003711 267.6332  92.4402 14.98336322 89635
STARLINK-5317           
1 55283U 23010Q   24244.62483846  .00003002  00000+0  25921-3 0  9992
2 55283  70.0011   3.9309 0003270 267.1415  92.9370 14.98346112 89631
STARLINK-5337           
1 55284U 23010R   24244.60398023  .00000342  00000+0  36438-4 0  9993
2 55284  69.9997   3.8521 0003709 266.6800  93.3934 14.98335670 89634
STARLINK-5332           
1 55285U 23010S   24244.50755442  .00002843  00000+0  24589-3 0  9996
2 55285  69.9991 324.1719 0003104 265.6883  94.3921 14.98337125 91486
STARLINK-5338           
1 55286U 23010T   24244.42017992  .00002734  00000+0  23692-3 0  9992
2 55286  69.9984 344.5469 0003082 265.8399  94.2408 14.98323336 90090
STARLINK-5341           
1 55287U 23010U   24244.50356413  .00009563  00000+0  80771-3 0  9994
2 55287  70.0027 324.4746 0002840 266.8746  93.2088 14.98352297 90591
STARLINK-5311           
1 55288U 23010V   24244.40781321  .00003425  00000+0  29466-3 0  9999
2 55288  70.0019 344.5069 0002981 267.1142  92.9675 14.98335880 90096
STARLINK-5320           
1 55289U 23010W   24244.55786260  .00001799  00000+0  15849-3 0  9995
2 55289  70.0002 344.2294 0003595 276.5581  83.5169 14.98336564 90116
STARLINK-5266           
1 55290U 23010X   24244.54950788  .00002902  00000+0  25081-3 0  9990
2 55290  70.0000 344.1976 0003015 263.4600  96.6216 14.98342511 90113
STARLINK-5327           
1 55291U 23010Y   24244.56620210  .00007251  00000+0  61448-3 0  9996
2 55291  70.0007 344.2566 0003287 270.7581  89.3202 14.98353250 89807
STARLINK-5325           
1 55292U 23010Z   24244.53698977  .00002847  00000+0  24621-3 0  9997
2 55292  70.0020 344.1549 0002915 262.7521  97.3307 14.98342647 90114
STARLINK-5287           
1 55293U 23010AA  24244.54116186  .00002713  00000+0  23504-3 0  9997
2 55293  70.0016 344.1706 0002989 267.1597  92.9220 14.98339010 90113
STARLINK-5286           
1 55294U 23010AB  24244.61232520  .00004636  00000+0  39596-3 0  9991
2 55294  70.0019   3.8826 0002892 265.9890  94.0939 14.98344328 89637
STARLINK-5293           
1 55295U 23010AC  24244.58730419  .00002729  00000+0  23636-3 0  9997
2 55295  70.0022   4.2011 0003125 272.5369  87.5432 14.98339391 89637
